1 45197U 20012V   22365.34436580  .00005935  00000-0  41694-3 0  9991
2 45197  53.0521 233.5722 0001280  79.9678 280.1455 15.06406712159311
1 45197U 20012V   22365.34436580  .00005935  00000-0  41694-3 0  9991
2 45197  53.0521 233.5722 0001280  79.9678 280.1455 15.06406712158433
1 45197U 20012V   22365.67609731  .00005451  00000-0  38444-3 0  9999
2 45197  53.0524 232.0826 0001265  79.3225 280.7906 15.06412814159360
1 45197U 20012V   23001.00783568 -.00000009  00000-0  18263-4 0  9998
2 45197  53.0519 230.5935 0001289  84.2664 275.8472 15.06398211158531
1 45197U 20012V   23001.60495578 -.00001302  00000-0 -68557-4 0  9994
2 45197  53.0522 227.9127 0001443  84.3485 275.7668 15.06397219159503
1 45197U 20012V   23001.73765500 -.00005162  00000-0 -32805-3 0  9997
2 45197  53.0524 227.3176 0001550  85.5555 274.5611 15.06384139159527
1 45197U 20012V   23002.00304688 -.00003906  00000-0 -24357-3 0  9991
2 45197  53.0524 226.1260 0001511  84.7180 275.3982 15.06382522158680
1 45197U 20012V   23002.33478383 -.00001783  00000-0 -10085-3 0  9995
2 45197  53.0524 224.6366 0001438  83.0380 277.0773 15.06389467159618
1 45197U 20012V   23002.86556639  .00002715  00000-0  20116-3 0  9994
2 45197  53.0521 222.2538 0001819  92.3799 267.7398 15.06383499159696
1 45197U 20012V   23003.13094958  .00000136  00000-0  28018-4 0  9991
2 45197  53.0521 221.0624 0001453  86.1069 274.0086 15.06394197159731
1 45197U 20012V   23003.13094958  .00000136  00000-0  28018-4 0  9991
2 45197  53.0521 221.0624 0001453  86.1069 274.0086 15.06394197158853
1 45197U 20012V   23004.05981030  .00005080  00000-0  35970-3 0  9996
2 45197  53.0519 216.8925 0001470  84.7467 275.3690 15.06398697159878
1 45197U 20012V   23004.85595141  .00011673  00000-0  80046-3 0  9997
2 45197  53.0512 213.3179 0001259  97.8301 262.2831 15.06435732159998
1 45197U 20012V   23004.85595141  .00011673  00000-0  80046-3 0  9997
2 45197  53.0512 213.3179 0001259  97.8301 262.2831 15.06435732159112
1 45197U 20012V   23004.98864665  .00004702  00000-0  33417-3 0  9996
2 45197  53.0514 212.7225 0001040  90.4648 269.6460 15.06420440159131
1 45197U 20012V   23005.58577057 -.00000195  00000-0  57927-5 0  9996
2 45197  53.0513 210.0418 0001253  90.4941 269.6192 15.06409277159224
1 45197U 20012V   23005.85115503  .00000691  00000-0  65272-4 0  9991
2 45197  53.0512 208.8504 0001223  88.7365 271.3764 15.06411706160149
1 45197U 20012V   23006.91271130 -.00003157  00000-0 -19322-3 0  9994
2 45197  53.0512 204.0852 0001278 100.1344 259.9789 15.06385514160303
1 45197U 20012V   23006.91271130 -.00003157  00000-0 -19322-3 0  9994
2 45197  53.0512 204.0852 0001278 100.1344 259.9789 15.06385514159424
1 45197U 20012V   23007.24444427 -.00003226  00000-0 -19779-3 0  9995
2 45197  53.0516 202.5960 0001201  97.6346 262.4780 15.06395523160354
1 45197U 20012V   23007.24444427 -.00003226  00000-0 -19779-3 0  9995
2 45197  53.0516 202.5960 0001201  97.6346 262.4780 15.06395523159475
1 45197U 20012V   23007.90791862  .00000416  00000-0  46848-4 0  9990
2 45197  53.0513 199.6166 0001245  98.8774 261.2356 15.06392789160459
1 45197U 20012V   23008.50503916 -.00000954  00000-0 -45159-4 0  9991
2 45197  53.0516 196.9357 0001235  98.9424 261.1705 15.06398644160549
1 45197U 20012V   23008.50503916 -.00000954  00000-0 -45159-4 0  9991
2 45197  53.0516 196.9357 0001235  98.9424 261.1705 15.06398644159660
1 45197U 20012V   23008.90312425  .00003326  00000-0  24209-3 0  9994
2 45197  53.0514 195.1485 0001271  98.8093 261.3040 15.06397579160608
1 45197U 20012V   23009.50025836  .00001525  00000-0  12125-3 0  9991
2 45197  53.0519 192.4682 0001335  90.1044 270.0098 15.06388879160696
1 45197U 20012V   23009.63295202  .00002132  00000-0  16203-3 0  9997
2 45197  53.0514 191.8723 0001336  90.7175 269.3967 15.06391112159836
1 45197U 20012V   23009.89833997  .00002443  00000-0  18286-3 0  9992
2 45197  53.0514 190.6807 0001366  90.7720 269.3425 15.06393790160751
1 45197U 20012V   23010.56180939  .00004894  00000-0  34724-3 0  9996
2 45197  53.0512 187.7021 0001424  87.8587 272.2565 15.06399908160853
1 45197U 20012V   23011.29160896 -.00004621  00000-0 -29130-3 0  9992
2 45197  53.0515 184.4255 0001793  76.7710 283.3478 15.06425722160088
1 45197U 20012V   23011.55700235  .00006854  00000-0  47835-3 0  9998
2 45197  53.0515 183.2340 0001505  85.3477 274.7684 15.06418475161000
1 45197U 20012V   23011.75603919  .00007946  00000-0  55140-3 0  9992
2 45197  53.0517 182.3407 0001501  82.7241 277.3919 15.06424125160156
1 45197U 20012V   23011.88873040  .00008048  00000-0  55817-3 0  9995
2 45197  53.0517 181.7451 0001495  82.3339 277.7819 15.06426476161058
1 45197U 20012V   23012.15412503 -.00003264  00000-0 -20025-3 0  9999
2 45197  53.0518 180.5535 0002343  86.2492 273.8765 15.06401348160210
1 45197U 20012V   23012.81759408 -.00003701  00000-0 -22972-3 0  9999
2 45197  53.0522 177.5762 0001379  91.3338 268.7809 15.06392733161194
1 45197U 20012V   23012.81759408 -.00003701  00000-0 -22972-3 0  9999
2 45197  53.0522 177.5762 0001379  91.3338 268.7809 15.06392733160317
1 45197U 20012V   23013.14932865 -.00001003  00000-0 -48489-4 0  9991
2 45197  53.0526 176.0873 0001331  92.7315 267.3826 15.06395595161242
1 45197U 20012V   23014.14453272  .00006468  00000-0  45267-3 0  9990
2 45197  53.0523 171.6198 0001352  93.7264 266.3880 15.06404294160512
1 45197U 20012V   23014.47626908  .00002625  00000-0  19505-3 0  9991
2 45197  53.0519 170.1296 0001312  91.6496 268.4644 15.06396453160563
1 45197U 20012V   23015.60416789  .00003448  00000-0  25021-3 0  9995
2 45197  53.0518 165.0674 0001468  74.3750 285.7400 15.06403656161611
1 45197U 20012V   23015.67050913  .00005362  00000-0  37850-3 0  9995
2 45197  53.0515 164.7672 0001287  88.2622 271.8514 15.06406581161626
1 45197U 20012V   23015.67050913  .00005362  00000-0  37850-3 0  9995
2 45197  53.0515 164.7672 0001287  88.2622 271.8514 15.06406581160748
1 45197U 20012V   23016.20128544  .00003172  00000-0  23170-3 0  9998
2 45197  53.0511 162.3844 0001372  99.3361 260.7783 15.06402508160826
1 45197U 20012V   23016.40033053 -.00000771  00000-0 -32884-4 0  9997
2 45197  53.0514 161.4911 0001314  96.9489 263.1650 15.06390449160857
1 45197U 20012V   23016.59936995  .00000730  00000-0  67905-4 0  9999
2 45197  53.0516 160.5974 0001289  99.3289 260.7845 15.06394974161761
1 45197U 20012V   23016.79840910  .00001906  00000-0  14683-3 0  9992
2 45197  53.0515 159.7037 0001288 100.6631 259.4503 15.06399284161794
1 45197U 20012V   23016.79840910  .00001906  00000-0  14683-3 0  9992
2 45197  53.0515 159.7037 0001288 100.6631 259.4503 15.06399284160917
1 45197U 20012V   23017.46188302  .00000980  00000-0  84709-4 0  9995
2 45197  53.0517 156.7253 0001270 101.3528 258.7604 15.06392781161897
1 45197U 20012V   23017.46188302  .00000980  00000-0  84709-4 0  9995
2 45197  53.0517 156.7253 0001270 101.3528 258.7604 15.06392781161011
1 45197U 20012V   23017.72726775  .00003185  00000-0  23262-3 0  9992
2 45197  53.0517 155.5342 0001225  99.6131 260.4997 15.06401536161931
1 45197U 20012V   23018.58977415  .00008342  00000-0  57805-3 0  9996
2 45197  53.0518 151.6620 0001167  97.5191 262.5931 15.06414166162065
1 45197U 20012V   23018.65611901  .00010927  00000-0  75089-3 0  9995
2 45197  53.0520 151.3652 0001099  92.9554 267.1561 15.06421272161195
1 45197U 20012V   23019.45228826 -.00001985  00000-0 -11444-3 0  9995
2 45197  53.0519 147.7900 0001146 109.5763 250.5349 15.06391689162197
1 45197U 20012V   23019.45228826 -.00001985  00000-0 -11444-3 0  9995
2 45197  53.0519 147.7900 0001146 109.5763 250.5349 15.06391689161310
1 45197U 20012V   23020.04940925  .00002900  00000-0  21347-3 0  9992
2 45197  53.0520 145.1097 0001121 104.9581 255.1532 15.06402649161405
1 45197U 20012V   23020.51383565  .00005189  00000-0  36692-3 0  9996
2 45197  53.0524 143.0252 0000996 106.7212 253.3886 15.06406783162359
1 45197U 20012V   23020.71287380  .00017065  00000-0  11610-2 0  9994
2 45197  53.0518 142.1315 0001148 105.4939 254.6176 15.06423687161508
1 45197U 20012V   23021.11095702  .00004538  00000-0  32330-3 0  9998
2 45197  53.0516 140.3466 0001239  96.1006 264.0124 15.06404941161561
1 45197U 20012V   23021.64173134  .00028595  00000-0  19301-2 0  9993
2 45197  53.0522 137.9625 0001185  83.5983 276.5140 15.06413661161645
1 45197U 20012V   23022.57059322  .00024120  00000-0  16323-2 0  9999
2 45197  53.0531 133.7919 0001213  89.9069 270.2059 15.06406786161787
1 45197U 20012V   23023.03502178  .00013411  00000-0  91746-3 0  9997
2 45197  53.0524 131.7086 0001149  89.8878 270.2243 15.06402575161852
1 45197U 20012V   23023.63214180  .00011665  00000-0  80046-3 0  9996
2 45197  53.0528 129.0271 0001505 104.3566 255.7590 15.06411479161941
1 45197U 20012V   23024.49465020  .00003300  00000-0  24033-3 0  9993
2 45197  53.0523 125.1543 0001468  97.6605 262.4551 15.06404303162076
1 45197U 20012V   23025.48986065 -.00000529  00000-0 -16624-4 0  9990
2 45197  53.0525 120.6866 0001310 101.7495 258.3641 15.06392141162223
1 45197U 20012V   23025.55620529 -.00000677  00000-0 -26586-4 0  9990
2 45197  53.0533 120.3879 0001297  98.7159 261.3977 15.06395058163114
1 45197U 20012V   23026.55140456  .00008672  00000-0  60015-3 0  9992
2 45197  53.0525 115.9222 0001212  93.4189 266.6939 15.06413532163269
1 45197U 20012V   23026.55140456  .00008672  00000-0  60015-3 0  9992
2 45197  53.0525 115.9222 0001212  93.4189 266.6939 15.06413532162381
1 45197U 20012V   23026.94948699  .00006825  00000-0  47655-3 0  9993
2 45197  53.0519 114.1360 0001195  86.7883 273.3243 15.06404912162446
1 45197U 20012V   23027.54661123  .00001263  00000-0  10366-3 0  9994
2 45197  53.0528 111.4561 0001541  84.1633 275.9531 15.06399226162538
1 45197U 20012V   23028.47546732 -.00000371  00000-0 -60131-5 0  9993
2 45197  53.0530 107.2856 0001544  85.2266 274.8900 15.06399115163556
1 45197U 20012V   23029.20528579  .00000833  00000-0  74802-4 0  9994
2 45197  53.0529 104.0095 0001598  82.0935 278.0235 15.06394184162783
1 45197U 20012V   23029.47065860 -.00007196  00000-0 -46428-3 0  9995
2 45197  53.0538 102.8165 0001471 107.4243 252.6907 15.06431177162824
1 45197U 20012V   23029.53701529  .00001005  00000-0  86337-4 0  9996
2 45197  53.0537 102.5184 0001448  96.9992 263.1161 15.06400851163711
1 45197U 20012V   23029.53701529  .00001005  00000-0  86337-4 0  9996
2 45197  53.0537 102.5184 0001448  96.9992 263.1161 15.06400851162833
1 45197U 20012V   23030.20049181  .00001558  00000-0  12350-3 0  9997
2 45197  53.0536  99.5398 0001461  96.2163 263.8993 15.06387683162930
1 45197U 20012V   23030.53222025  .00000594  00000-0  58762-4 0  9990
2 45197  53.0537  98.0504 0001396 100.1750 259.9396 15.06398200163861
1 45197U 20012V   23030.53222025  .00000594  00000-0  58762-4 0  9990
2 45197  53.0537  98.0504 0001396 100.1750 259.9396 15.06398200162983
1 45197U 20012V   23031.19569321  .00001295  00000-0  10581-3 0  9991
2 45197  53.0535  95.0718 0001347 100.6491 259.4650 15.06390102163081
1 45197U 20012V   23031.39472198 -.00004601  00000-0 -29001-3 0  9991
2 45197  53.0537  94.1785 0001454  90.8014 269.3142 15.06421155163996
1 45197U 20012V   23031.39472198 -.00004601  00000-0 -29001-3 0  9991
2 45197  53.0537  94.1785 0001454  90.8014 269.3142 15.06421155163110
1 45197U 20012V   23031.85915706  .00000267  00000-0  36842-4 0  9993
2 45197  53.0537  92.0939 0001288  95.6536 264.4599 15.06400587164068
